{"type":"FeatureCollection","features":[{"type":"Feature","properties":{"name":"Ruta 60"},"geometry":{"coordinates":[[-100.7798192417624,20.5160215894536],[-100.77596137077094,20.530505033861473],[-100.78104476026921,20.54879029123154],[-100.82906809369746,20.55343382563568],[-100.83296064070096,20.55501496291825],[-100.84070055738499,20.549254889396025],[-100.8472556641611,20.533164068295136],[-100.84936291680789,20.525160543734998],[-100.84903422799019,20.520086250502757]],"type":"LineString"}},{"type":"Feature","properties":{},"geometry":{"coordinates":[[-100.84911411929856,20.520182543282132],[-100.84935528255185,20.518864674494353],[-100.84051535131566,20.51885364171406],[-100.82050277766587,20.519950314932416],[-100.80813344175226,20.519012444034516],[-100.79811355529587,20.51979207388095],[-100.7806741820893,20.515459029136423],[-100.77975209110393,20.51635554279133],[-100.78163855256848,20.51294938618281]],"type":"LineString"}},{"type":"Feature","properties":{},"geometry":{"coordinates":[-100.78091054547903,20.514285052549326],"type":"Point"}},{"type":"Feature","properties":{},"geometry":{"coordinates":[-100.78054770925475,20.515158381422168],"type":"Point"}},{"type":"Feature","properties":{},"geometry":{"coordinates":[-100.77837279674928,20.539228197574687],"type":"Point"}},{"type":"Feature","properties":{},"geometry":{"coordinates":[-100.77978752307558,20.54427876322167],"type":"Point"}},{"type":"Feature","properties":{},"geometry":{"coordinates":[-100.78080487171815,20.54798264237128],"type":"Point"}},{"type":"Feature","properties":{},"geometry":{"coordinates":[-100.78347761541653,20.54890464137918],"type":"Point"}},{"type":"Feature","properties":{},"geometry":{"coordinates":[-100.78479846438286,20.54894912407275],"type":"Point"}},{"type":"Feature","properties":{},"geometry":{"coordinates":[-100.78969408359559,20.549471696274566],"type":"Point"}},{"type":"Feature","properties":{},"geometry":{"coordinates":[-100.7915471407493,20.54971319688532],"type":"Point"}},{"type":"Feature","properties":{},"geometry":{"coordinates":[-100.78743158049731,20.549236100645118],"type":"Point"}},{"type":"Feature","properties":{},"geometry":{"coordinates":[-100.79421085779845,20.549932673116203],"type":"Point"}},{"type":"Feature","properties":{},"geometry":{"coordinates":[-100.79931699893486,20.550445850345355],"type":"Point"}},{"type":"Feature","properties":{},"geometry":{"coordinates":[-100.8027906642434,20.550857434037454],"type":"Point"}},{"type":"Feature","properties":{},"geometry":{"coordinates":[-100.80398683442718,20.550936566054702],"type":"Point"}},{"type":"Feature","properties":{},"geometry":{"coordinates":[-100.80903105391208,20.551460485695728],"type":"Point"}},{"type":"Feature","properties":{},"geometry":{"coordinates":[-100.81082925682011,20.551646627626567],"type":"Point"}},{"type":"Feature","properties":{},"geometry":{"coordinates":[-100.8149810647186,20.55208663255705],"type":"Point"}},{"type":"Feature","properties":{},"geometry":{"coordinates":[-100.82004993520731,20.552601966077972],"type":"Point"}},{"type":"Feature","properties":{},"geometry":{"coordinates":[-100.81694635258108,20.552268803516412],"type":"Point"}},{"type":"Feature","properties":{},"geometry":{"coordinates":[-100.82322827260109,20.55294101745858],"type":"Point"}},{"type":"Feature","properties":{},"geometry":{"coordinates":[-100.7792068385004,20.519615454645646],"type":"Point"}},{"type":"Feature","properties":{},"geometry":{"coordinates":[-100.77817820569756,20.523586592937377],"type":"Point"}},{"type":"Feature","properties":{},"geometry":{"coordinates":[-100.77667279677708,20.533177790758188],"type":"Point"}},{"type":"Feature","properties":{},"geometry":{"coordinates":[-100.82588929637878,20.55309009412217],"type":"Point"}},{"type":"Feature","properties":{},"geometry":{"coordinates":[-100.82822659702883,20.553324578776042],"type":"Point"}},{"type":"Feature","properties":{},"geometry":{"coordinates":[-100.83443454029484,20.55426386008314],"type":"Point"}},{"type":"Feature","properties":{},"geometry":{"coordinates":[-100.83726117419731,20.552121865509378],"type":"Point"}},{"type":"Feature","properties":{},"geometry":{"coordinates":[-100.83803059416788,20.551533110462998],"type":"Point"}},{"type":"Feature","properties":{},"geometry":{"coordinates":[-100.84080004296517,20.54864920324232],"type":"Point"}},{"type":"Feature","properties":{},"geometry":{"coordinates":[-100.84236082445472,20.54482304995497],"type":"Point"}},{"type":"Feature","properties":{},"geometry":{"coordinates":[-100.84342140046424,20.542341895617568],"type":"Point"}},{"type":"Feature","properties":{},"geometry":{"coordinates":[-100.84416980008845,20.5403777611929],"type":"Point"}},{"type":"Feature","properties":{},"geometry":{"coordinates":[-100.84579984574445,20.53645632464439],"type":"Point"}},{"type":"Feature","properties":{},"geometry":{"coordinates":[-100.84701522453535,20.533572126033732],"type":"Point"}},{"type":"Feature","properties":{},"geometry":{"coordinates":[-100.84849859861419,20.52861379339086],"type":"Point"}},{"type":"Feature","properties":{},"geometry":{"coordinates":[-100.84898672399531,20.52681625863063],"type":"Point"}},{"type":"Feature","properties":{},"geometry":{"coordinates":[-100.8492633368727,20.524328818734332],"type":"Point"}},{"type":"Feature","properties":{},"geometry":{"coordinates":[-100.84918688023176,20.520332840446144],"type":"Point"}},{"type":"Feature","properties":{},"geometry":{"coordinates":[-100.84625812039269,20.518604946071378],"type":"Point"}},{"type":"Feature","properties":{},"geometry":{"coordinates":[-100.84332794813814,20.518888607520054],"type":"Point"}},{"type":"Feature","properties":{},"geometry":{"coordinates":[-100.83972881233122,20.51849403849765],"type":"Point"}},{"type":"Feature","properties":{},"geometry":{"coordinates":[-100.83656169541528,20.518783485610555],"type":"Point"}},{"type":"Feature","properties":{},"geometry":{"coordinates":[-100.83195200082396,20.519095024302445],"type":"Point"}},{"type":"Feature","properties":{},"geometry":{"coordinates":[-100.82761456294602,20.51948121717146],"type":"Point"}},{"type":"Feature","properties":{},"geometry":{"coordinates":[-100.82284943954393,20.519773156428542],"type":"Point"}},{"type":"Feature","properties":{},"geometry":{"coordinates":[-100.81916550473991,20.519827929916488],"type":"Point"}},{"type":"Feature","properties":{},"geometry":{"coordinates":[-100.81506769777016,20.519602996451823],"type":"Point"}},{"type":"Feature","properties":{},"geometry":{"coordinates":[-100.81289146091413,20.519433283688343],"type":"Point"}},{"type":"Feature","properties":{},"geometry":{"coordinates":[-100.81256591481464,20.5194156938051],"type":"Point"}},{"type":"Feature","properties":{},"geometry":{"coordinates":[-100.80878154543566,20.519111968122417],"type":"Point"}},{"type":"Feature","properties":{},"geometry":{"coordinates":[-100.80524214242163,20.51928786989552],"type":"Point"}},{"type":"Feature","properties":{},"geometry":{"coordinates":[-100.79102144706721,20.517961737407276],"type":"Point"}},{"type":"Feature","properties":{},"geometry":{"coordinates":[-100.7867999954834,20.516875702344308],"type":"Point"}},{"type":"Feature","properties":{},"geometry":{"coordinates":[-100.78212871604929,20.515775172556616],"type":"Point"}}]}